[Satellite]
VERSION=1.1
NAME=FREGAT R/B
NICKNAME=FREGAT R/B
TLE1=1 45255U 20015B   20080.43102938  .00000131  00000-0 -22225-2 0  9990
TLE2=2 45255  62.8485 221.9542 7263320 294.6484   8.5629  1.99752699   626
STATUS=0
